0 COSMOS 1275 DEB
1 12690U 81053AJ  13281.80421554  .00001050  00000-0  10326-2 0  5423
2 12690 082.9525 194.5742 0087967 206.0288 208.2884 13.76284341605064
0 COSMOS 1275 DEB
1 12690U 81053AJ  13284.13350965  .00001118  00000-0  10996-2 0  5438
2 12690 082.9526 192.8474 0088060 199.3564 229.2418 13.76290479605384
0 COSMOS 1275 DEB
1 12690U 81053AJ  13286.47157527  .00001032  00000-0  10143-2 0  5446
2 12690 082.9526 191.1140 0088183 192.6417 293.7172 13.76294583605704
0 COSMOS 1275 DEB
1 12690U 81053AJ  13288.50579985  .00001371  00000-0  13518-2 0  5454
2 12690 082.9524 189.6060 0088303 186.8299 292.7469 13.76299994605981
0 COSMOS 1275 DEB
1 12690U 81053AJ  13291.20476674  .00001130  00000-0  11110-2 0  5466
2 12690 082.9520 187.6053 0088501 179.1537 345.4115 13.76305972606357
0 COSMOS 1275 DEB
1 12690U 81053AJ  13293.23752934  .00001189  00000-0  11699-2 0  5474
2 12690 082.9519 186.0983 0088652 173.3689 337.2526 13.76309884606633
0 COSMOS 1275 DEB
1 12690U 81053AJ  13295.48466561  .00001208  00000-0  11884-2 0  5480
2 12690 082.9521 184.4321 0088842 166.9624 311.3161 13.76316175606945
